start=new Date('2022-10-09T00:00:00.000Z').valueOf();
sats=[{"INCLINATION":"53.0575","DECAY_DATE":null,"OBJECT_TYPE":"PAYLOAD","MEAN_MOTION_DOT":"0.00000353","COUNTRY_CODE":"US","ARG_OF_PERICENTER":"55.1118","EPHEMERIS_TYPE":"0","RA_OF_ASC_NODE":"339.1757","OBJECT_NAME":"STARLINK-1309","NORAD_CAT_ID":"45414","TLE_LINE2":"2 45414  53.0575 339.1757 0001761  55.1118 305.0036 15.06389040141746","SITE":"AFETR","PERIAPSIS":"546.028","BSTAR":"0.00004258300000","TIME_SYSTEM":"UTC","GP_ID":"214502722","TLE_LINE1":"1 45414U 20019BG  22281.67631829  .00000353  00000-0  42583-4 0  9994","MEAN_MOTION":"15.06389040","ELEMENT_SET_NO":"999","PERIOD":"95.593","APOAPSIS":"548.467","CLASSIFICATION_TYPE":"U","MEAN_ELEMENT_THEORY":"SGP4","EPOCH":"2022-10-08T16:13:53.900256","ECCENTRICITY":"0.00017610","LAUNCH_DATE":"2020-03-18","CENTER_NAME":"EARTH","OBJECT_ID":"2020-019BG","MEAN_ANOMALY":"305.0036","RCS_SIZE":"LARGE","REF_FRAME":"TEME","MEAN_MOTION_DDOT":"0.0000000000000","SEMIMAJOR_AXIS":"6925.382","REV_AT_EPOCH":"14174","FILE":"3596607"},{"PERIAPSIS":"546.132","SITE":"AFETR","TLE_LINE2":"2 45415  53.0563 340.2552 0001592  70.9538 289.1623 15.06393155141749","NORAD_CAT_ID":"45415","GP_ID":"214482575","TIME_SYSTEM":"UTC","BSTAR":"-0.00008430200000","COUNTRY_CODE":"US","MEAN_MOTION_DOT":"-0.00001537","ARG_OF_PERICENTER":"70.9538","DECAY_DATE":null,"OBJECT_TYPE":"PAYLOAD","INCLINATION":"53.0563","OBJECT_NAME":"STARLINK-1316","RA_OF_ASC_NODE":"340.2552","EPHEMERIS_TYPE":"0","RCS_SIZE":"LARGE","OBJECT_ID":"2020-019BH","CENTER_NAME":"EARTH","MEAN_ANOMALY":"289.1623","LAUNCH_DATE":"2020-03-18","ECCENTRICITY":"0.00015920","FILE":"3596556","SEMIMAJOR_AXIS":"6925.370","REV_AT_EPOCH":"14174","REF_FRAME":"TEME","MEAN_MOTION_DDOT":"0.0000000000000","PERIOD":"95.593","ELEMENT_SET_NO":"999","MEAN_MOTION":"15.06393155","TLE_LINE1":"1 45415U 20019BH  22281.43672489 -.00001537  00000-0 -84302-4 0  9998","EPOCH":"2022-10-08T10:28:53.030496","MEAN_ELEMENT_THEORY":"SGP4","APOAPSIS":"548.337","CLASSIFICATION_TYPE":"U"},{"SITE":"AFETR","PERIAPSIS":"546.157","NORAD_CAT_ID":"45416","TLE_LINE2":"2 45416  53.0544 340.0921 0001555  63.4215 296.6933 15.06393424141730","BSTAR":"-0.00003803800000","TIME_SYSTEM":"UTC","GP_ID":"214473272","OBJECT_TYPE":"PAYLOAD","DECAY_DATE":null,"MEAN_MOTION_DOT":"-0.00000848","COUNTRY_CODE":"US","ARG_OF_PERICENTER":"63.4215","INCLINATION":"53.0544","RA_OF_ASC_NODE":"340.0921","OBJECT_NAME":"STARLINK-1318","EPHEMERIS_TYPE":"0","OBJECT_ID":"2020-019BJ","CENTER_NAME":"EARTH","MEAN_ANOMALY":"296.6933","RCS_SIZE":"LARGE","ECCENTRICITY":"0.00015550","LAUNCH_DATE":"2020-03-18","FILE":"3596390","MEAN_MOTION_DDOT":"0.0000000000000","REF_FRAME":"TEME","REV_AT_EPOCH":"14173","SEMIMAJOR_AXIS":"6925.369","PERIOD":"95.593","ELEMENT_SET_NO":"999","TLE_LINE1":"1 45416U 20019BJ  22281.46989807 -.00000848  00000-0 -38038-4 0  9996","MEAN_MOTION":"15.06393424","MEAN_ELEMENT_THEORY":"SGP4","EPOCH":"2022-10-08T11:16:39.193248","CLASSIFICATION_TYPE":"U","APOAPSIS":"548.311"},{"TLE_LINE1":"1 45417U 20019BK  22281.54085504 -.00001954  00000-0 -11238-3 0  9998","MEAN_MOTION":"15.06386766","PERIOD":"95.593","ELEMENT_SET_NO":"999","CLASSIFICATION_TYPE":"U","APOAPSIS":"548.287","MEAN_ELEMENT_THEORY":"SGP4","EPOCH":"2022-10-08T12:58:49.875456","ECCENTRICITY":"0.00014920","LAUNCH_DATE":"2020-03-18","MEAN_ANOMALY":"294.5925","CENTER_NAME":"EARTH","OBJECT_ID":"2020-019BK","RCS_SIZE":"LARGE","MEAN_MOTION_DDOT":"0.0000000000000","REF_FRAME":"TEME","REV_AT_EPOCH":"14159","SEMIMAJOR_AXIS":"6925.389","FILE":"3596390","INCLINATION":"53.0565","DECAY_DATE":null,"OBJECT_TYPE":"PAYLOAD","COUNTRY_CODE":"US","ARG_OF_PERICENTER":"65.5220","MEAN_MOTION_DOT":"-0.00001954","EPHEMERIS_TYPE":"0","RA_OF_ASC_NODE":"9.7658","OBJECT_NAME":"STARLINK-1286","NORAD_CAT_ID":"45417","TLE_LINE2":"2 45417  53.0565   9.7658 0001492  65.5220 294.5925 15.06386766141592","SITE":"AFETR","PERIAPSIS":"546.221","TIME_SYSTEM":"UTC","BSTAR":"-0.00011238000000","GP_ID":"214472031"},{"PERIOD":"95.422","ELEMENT_SET_NO":"999","MEAN_MOTION":"15.09088795","TLE_LINE1":"1 45418U 20019BL  22281.61728512  .00035390  00000-0  22152-2 0  9995","EPOCH":"2022-10-08T14:48:53.434368","MEAN_ELEMENT_THEORY":"SGP4","CLASSIFICATION_TYPE":"U","APOAPSIS":"540.126","RCS_SIZE":"LARGE","OBJECT_ID":"2020-019BL","CENTER_NAME":"EARTH","MEAN_ANOMALY":"330.5394","LAUNCH_DATE":"2020-03-18","ECCENTRICITY":"0.00016490","FILE":"3596607","REV_AT_EPOCH":"14101","SEMIMAJOR_AXIS":"6917.120","MEAN_MOTION_DDOT":"0.0000000000000","REF_FRAME":"TEME","COUNTRY_CODE":"US","MEAN_MOTION_DOT":"0.00035390","ARG_OF_PERICENTER":"29.5688","DECAY_DATE":null,"OBJECT_TYPE":"PAYLOAD","INCLINATION":"52.9998","OBJECT_NAME":"STARLINK-1299","RA_OF_ASC_NODE":"29.6059","EPHEMERIS_TYPE":"0","PERIAPSIS":"537.844","SITE":"AFETR","TLE_LINE2":"2 45418  52.9998  29.6059 0001649  29.5688 330.5394 15.09088795141011","NORAD_CAT_ID":"45418","GP_ID":"214502224","BSTAR":"0.00221520000000","TIME_SYSTEM":"UTC"},{"SITE":"AFETR","PERIAPSIS":"546.170","NORAD_CAT_ID":"45419","TLE_LINE2":"2 45419  53.0552   8.9112 0001524  65.2752 294.8395 15.06396102141374","TIME_SYSTEM":"UTC","BSTAR":"0.00003582400000","GP_ID":"214502975","DECAY_DATE":null,"OBJECT_TYPE":"PAYLOAD","MEAN_MOTION_DOT":"0.00000252","COUNTRY_CODE":"US","ARG_OF_PERICENTER":"65.2752","INCLINATION":"53.0552","RA_OF_ASC_NODE":"8.9112","OBJECT_NAME":"STARLINK-1308","EPHEMERIS_TYPE":"0","MEAN_ANOMALY":"294.8395","CENTER_NAME":"EARTH","OBJECT_ID":"2020-019BM","RCS_SIZE":"LARGE","ECCENTRICITY":"0.00015240","LAUNCH_DATE":"2020-03-18","FILE":"3596607","MEAN_MOTION_DDOT":"0.0000000000000","REF_FRAME":"TEME","REV_AT_EPOCH":"14137","SEMIMAJOR_AXIS":"6925.361","ELEMENT_SET_NO":"999","PERIOD":"95.592","TLE_LINE1":"1 45419U 20019BM  22281.73620806  .00000252  00000-0  35824-4 0  9997","MEAN_MOTION":"15.06396102","MEAN_ELEMENT_THEORY":"SGP4","EPOCH":"2022-10-08T17:40:08.376384","CLASSIFICATION_TYPE":"U","APOAPSIS":"548.281"},{"ELEMENT_SET_NO":"999","PERIOD":"95.592","MEAN_MOTION":"15.06399859","TLE_LINE1":"1 45531U 20025A   22281.57217604  .00000691  00000-0  65297-4 0  9993","EPOCH":"2022-10-08T13:43:56.009856","MEAN_ELEMENT_THEORY":"SGP4","CLASSIFICATION_TYPE":"U","APOAPSIS":"548.330","RCS_SIZE":"LARGE","MEAN_ANOMALY":"310.8808","CENTER_NAME":"EARTH","OBJECT_ID":"2020-025A","LAUNCH_DATE":"2020-04-22","ECCENTRICITY":"0.00016120","FILE":"3596607","REV_AT_EPOCH":"13697","SEMIMAJOR_AXIS":"6925.349","MEAN_MOTION_DDOT":"0.0000000000000","REF_FRAME":"TEME","MEAN_MOTION_DOT":"0.00000691","COUNTRY_CODE":"US","ARG_OF_PERICENTER":"49.2321","DECAY_DATE":null,"OBJECT_TYPE":"PAYLOAD","INCLINATION":"53.0552","OBJECT_NAME":"STARLINK-1329","RA_OF_ASC_NODE":"309.6417","EPHEMERIS_TYPE":"0","PERIAPSIS":"546.098","SITE":"AFETR","TLE_LINE2":"2 45531  53.0552 309.6417 0001612  49.2321 310.8808 15.06399859136970","NORAD_CAT_ID":"45531","GP_ID":"214503986","TIME_SYSTEM":"UTC","BSTAR":"0.00006529700000"},{"FILE":"3596607","MEAN_MOTION_DDOT":"0.0000000000000","REF_FRAME":"TEME","REV_AT_EPOCH":"13700","SEMIMAJOR_AXIS":"6925.371","CENTER_NAME":"EARTH","OBJECT_ID":"2020-025B","MEAN_ANOMALY":"293.6553","RCS_SIZE":"LARGE","ECCENTRICITY":"0.00017010","LAUNCH_DATE":"2020-04-22","MEAN_ELEMENT_THEORY":"SGP4","EPOCH":"2022-10-08T18:46:29.599392","CLASSIFICATION_TYPE":"U","APOAPSIS":"548.414","ELEMENT_SET_NO":"999","PERIOD":"95.593","TLE_LINE1":"1 45532U 20025B   22281.78228703  .00000934  00000-0  81635-4 0  9993","MEAN_MOTION":"15.06392817","BSTAR":"0.00008163500000","TIME_SYSTEM":"UTC","GP_ID":"214502734","SITE":"AFETR","PERIAPSIS":"546.058","NORAD_CAT_ID":"45532","TLE_LINE2":"2 45532  53.0566 308.7044 0001701  66.4615 293.6553 15.06392817137005","RA_OF_ASC_NODE":"308.7044","OBJECT_NAME":"STARLINK-1338","EPHEMERIS_TYPE":"0","OBJECT_TYPE":"PAYLOAD","DECAY_DATE":null,"COUNTRY_CODE":"US","MEAN_MOTION_DOT":"0.00000934","ARG_OF_PERICENTER":"66.4615","INCLINATION":"53.0566"},{"REV_AT_EPOCH":"13700","SEMIMAJOR_AXIS":"6925.349","MEAN_MOTION_DDOT":"0.0000000000000","REF_FRAME":"TEME","FILE":"3596607","LAUNCH_DATE":"2020-04-22","ECCENTRICITY":"0.00024520","RCS_SIZE":"LARGE","CENTER_NAME":"EARTH","MEAN_ANOMALY":"324.1670","OBJECT_ID":"2020-025D","CLASSIFICATION_TYPE":"U","APOAPSIS":"548.912","EPOCH":"2022-10-08T19:02:24.419616","MEAN_ELEMENT_THEORY":"SGP4","MEAN_MOTION":"15.06400003","TLE_LINE1":"1 45534U 20025D   22281.79333819  .00004624  00000-0  32913-3 0  9995","ELEMENT_SET_NO":"999","PERIOD":"95.592","GP_ID":"214502488","TIME_SYSTEM":"UTC","BSTAR":"0.00032913000000","TLE_LINE2":"2 45534  53.0536 308.6390 0002452  35.9483 324.1670 15.06400003137002","NORAD_CAT_ID":"45534","PERIAPSIS":"545.515","SITE":"AFETR","EPHEMERIS_TYPE":"0","OBJECT_NAME":"STARLINK-1341","RA_OF_ASC_NODE":"308.6390","INCLINATION":"53.0536","COUNTRY_CODE":"US","MEAN_MOTION_DOT":"0.00004624","ARG_OF_PERICENTER":"35.9483","DECAY_DATE":null,"OBJECT_TYPE":"PAYLOAD"},{"SITE":"AFETR","PERIAPSIS":"546.056","NORAD_CAT_ID":"45535","TLE_LINE2":"2 45535  53.0556 308.5600 0001688  53.2835 306.8309 15.06396106137017","BSTAR":"0.00010580000000","TIME_SYSTEM":"UTC","GP_ID":"214503736","OBJECT_TYPE":"PAYLOAD","DECAY_DATE":null,"COUNTRY_CODE":"US","ARG_OF_PERICENTER":"53.2835","MEAN_MOTION_DOT":"0.00001294","INCLINATION":"53.0556","RA_OF_ASC_NODE":"308.5600","OBJECT_NAME":"STARLINK-1350","EPHEMERIS_TYPE":"0","MEAN_ANOMALY":"306.8309","CENTER_NAME":"EARTH","OBJECT_ID":"2020-025E","RCS_SIZE":"LARGE","ECCENTRICITY":"0.00016880","LAUNCH_DATE":"2020-04-22","FILE":"3596607","MEAN_MOTION_DDOT":"0.0000000000000","REF_FRAME":"TEME","REV_AT_EPOCH":"13701","SEMIMAJOR_AXIS":"6925.360","ELEMENT_SET_NO":"999","PERIOD":"95.592","TLE_LINE1":"1 45535U 20025E   22281.81176565  .00001294  00000-0  10580-3 0  9998","MEAN_MOTION":"15.06396106","MEAN_ELEMENT_THEORY":"SGP4","EPOCH":"2022-10-08T19:28:56.552160","CLASSIFICATION_TYPE":"U","APOAPSIS":"548.394"}];
